TURKSAT 5A              
1 47306U 21001A   21228.57052546  .00000145  00000-0  00000+0 0  9992
2 47306   0.0166 111.0772 0000215 345.3950 105.0036  1.00270802  2288
TIANTONG-1 3            
1 47321U 21003A   21227.64703313 -.00000155  00000-0  00000-0 0  9996
2 47321   5.0939 309.0246 0003467 191.9720 137.6702  1.00270168  2258
TJS-6                   
1 47613U 21010A   21228.57403616  .00000034  00000-0  00000+0 0  9998
2 47613   0.5675 281.3028 0001328 280.3604 148.6245  1.00272125  2111
SBIRS GEO-5 (USA 315)   
1 48618U 21042A   21228.47584156 -.00000137  00000-0  00000-0 0  9993
2 48618   7.8591 327.4358 0002670 175.5416 247.7935  1.00561019  1051
FENGYUN 4B              
1 48808U 21047A   21228.41410873 -.00000366  00000-0  00000-0 0  9991
2 48808   0.0954 126.0376 0001083  79.6136  31.7409  1.00260709   860
SXM-8                   
1 48838U 21049A   21228.69768491 -.00000201  00000-0  00000+0 0  9995
2 48838   0.0441 111.6310 0002204  41.1786 326.1892  1.00703448   929
TIANLIAN 1-05           
1 49011U 21063A   21204.52157536  .00000062  00000-0  00000-0 0  9998
2 49011   2.9837 286.7627 0001083 230.4132 342.7310  1.00274565   135
STAR ONE D2             
1 49055U 21069A   21228.29227836 -.00000272  00000-0  00000-0 0  9997
2 49055   0.0723 263.0994 0001784 230.7197 226.1912  1.00271382   208
EUTELSAT QUANTUM        
1 49056U 21069B   21228.37063090  .00000118  00000-0  00000-0 0  9995
2 49056   0.0442 262.7087 0000164 287.4942 315.8725  1.00271671   225
